214P/LINEAR,e,15.1843,348.2555,190.2622,3.616877,0.1432859,0.48584658,268.2448,12/25.0/2020,2000,g 13.0,4.0
# From MPEC 2020-SI8
215P/NEAT,e,10.5815,56.6833,262.1138,4.327503,0.1094833,0.16689164,44.0705,12/25.0/2020,2000,g 11.0,4.0
# From MPC100284
216P/LINEAR,e,9.0548,359.8125,151.3502,3.869344,0.1294935,0.44596671,216.3146,12/25.0/2020,2000,g 13.0,4.0
# From MPC108598
217P/LINEAR,e,12.8645,125.4789,246.8420,3.951211,0.1254899,0.68851864,157.7223,12/25.0/2020,2000,g 12.0,4.0
# From MPEC 2020-K19
218P/LINEAR,e,2.7255,175.9722,59.7905,3.094420,0.1810653,0.62193368,14.8871,12/25.0/2020,2000,g 16.0,4.0
# From MPC100284
219P/LINEAR,e,11.5303,230.9835,107.3906,3.650339,0.1413202,0.35376569,198.1346,12/25.0/2020,2000,g 11.0,4.0
# From MPEC 2020-W26
220P/McNaught,e,8.1287,150.1023,180.5306,3.116058,0.1791826,0.50182175,2.5753,12/25.0/2020,2000,g 15.0,4.0
# From MPC 93589
221P/LINEAR,e,11.4262,229.7108,40.0746,3.457013,0.1533390,0.49278978,305.1048,12/25.0/2020,2000,g 14.5,4.0
# From MPC 92277
222P/LINEAR,e,5.0961,6.7866,346.2370,2.899409,0.1996364,0.71451727,113.5589,12/25.0/2020,2000,g 20.0,4.0
# From MPEC 2020-HN5
223P/Skiff,e,27.0206,346.7716,37.8186,4.159213,0.1161950,0.41582203,81.0611,12/25.0/2020,2000,g 12.0,4.0
# From MPC 75727
224P/LINEAR-NEAT,e,13.3071,40.2686,16.7464,3.440858,0.1544201,0.40768819,260.5528,12/25.0/2020,2000,g 15.5,4.0
# From MPC 75727
225P/LINEAR,e,21.3555,14.1877,3.8656,3.650592,0.1413055,0.63785520,224.8523,12/25.0/2020,2000,g 18.0,4.0
# From MPC106349
226P/Pigott-LINEAR-Kowalski,e,44.0147,54.0027,341.0427,3.767657,0.1347712,0.52833456,212.0418,12/25.0/2020,2000,g 12.5,4.0
# From MPC102956
227P/Catalina-LINEAR,e,6.5077,49.0013,90.4698,3.563722,0.1465036,0.50840627,187.2590,12/25.0/2020,2000,g 16.5,2.0
# From MPEC 2020-L06
228P/LINEAR,e,7.9108,30.9807,115.2406,4.172272,0.1156499,0.17655280,33.5079,12/25.0/2020,2000,g 14.5,2.0
# From MPC106349
229P/Gibbs,e,26.0891,157.9039,223.9666,3.930578,0.1264793,0.37680406,166.1917,12/25.0/2020,2000,g 13.0,4.0
# From MPC110497
230P/LINEAR,e,15.4978,107.0259,313.4627,3.453643,0.1535634,0.54687564,291.0574,12/25.0/2020,2000,g 13.0,4.0
# From MPEC 2020-K19
231P/LINEAR-NEAT,e,12.3359,133.0146,43.0937,4.022236,0.1221807,0.24771246,68.2135,12/25.0/2020,2000,g 14.5,2.0
# From MPC112394
232P/Hill,e,14.6325,56.0172,53.4454,4.481012,0.1039058,0.33419335,65.3542,12/25.0/2020,2000,g 11.5,4.0
# From MPC 92986
233P/La Sagra,e,11.2835,74.9260,27.0550,3.030935,0.1867837,0.41184644,15.7528,12/25.0/2020,2000,g 15.0,4.0
# From MPC110497
234P/LINEAR,e,11.5281,179.5636,357.3075,3.801650,0.1329676,0.25442447,173.6381,12/25.0/2020,2000,g 12.0,4.0
# From MPC110497
235P/LINEAR,e,8.9063,203.6413,333.4133,3.974305,0.1243977,0.32124572,126.1735,12/25.0/2020,2000,g 12.0,4.0
# From MPC107688
236P/LINEAR,e,16.3350,245.6388,119.2102,3.730718,0.1367777,0.50869421,154.5955,12/25.0/2020,2000,g 14.0,4.0
# From MPC109593
237P/LINEAR,e,14.0183,245.4057,25.1967,3.512486,0.1497208,0.43461652,229.7004,12/25.0/2020,2000,g 14.5,2.0
# From MPC107688
238P/Read,e,1.2644,51.6418,324.6245,3.164336,0.1750976,0.25228711,267.4149,12/25.0/2020,2000,g 14.5,4.0
# From MPC112394
239P/LINEAR,e,11.2987,255.9145,220.4525,4.471262,0.1042459,0.63031276,74.5536,12/25.0/2020,2000,g 17.5,2.0
# From MPC109593
240P/NEAT,e,23.5074,74.9182,351.9802,3.867480,0.1295872,0.44879607,123.6899,12/25.0/2020,2000,g 11.0,4.0
# From MPEC 2020-W26
241P/LINEAR,e,21.1068,305.4841,111.3979,4.918255,0.0903623,0.61008220,340.7770,12/25.0/2020,2000,g 13.5,4.0
# From MPC 81861
242P/Spahr,e,32.4856,180.4449,246.1353,5.479946,0.0768316,0.27801184,247.0238,12/25.0/2020,2000,g  8.0,4.0
# From MPC111774
243P/NEAT,e,7.6408,87.6493,283.5239,3.831374,0.1314233,0.35993976,111.9411,12/25.0/2020,2000,g 12.5,4.0
# From MPEC 2020-W26
244P/Scotti,e,2.2593,353.9900,92.9223,4.894967,0.0910080,0.19861086,297.0984,12/25.0/2020,2000,g  9.0,4.0
# From MPEC 2020-K19
245P/WISE,e,21.1975,316.6477,316.8483,4.043502,0.1212181,0.45742771,127.3081,12/25.0/2020,2000,g 14.0,4.0
# From MPEC 2020-W26
246P/NEAT,e,15.9873,78.7472,176.2900,4.015736,0.1224775,0.28682272,352.6785,12/25.0/2020,2000,g 10.5,4.0
# From MPC112394
247P/LINEAR,e,13.6535,54.0094,47.4865,3.969986,0.1246007,0.62431292,93.9840,12/25.0/2020,2000,g 16.5,2.0
# From MPC 75730
248P/Gibbs,e,6.3475,207.7571,209.8884,5.991299,0.0672082,0.63805046,243.9344,12/25.0/2020,2000,g 14.0,4.0
# From MPEC 2020-W26
249P/LINEAR,e,8.3963,239.1753,65.6111,2.762120,0.2147041,0.82013354,38.3254,12/25.0/2020,2000,g 15.5,4.0
# From MPC110497
250P/Larson,e,13.2015,73.5916,46.0763,3.758199,0.1352802,0.40232773,143.1909,12/25.0/2020,2000,g 14.5,4.0
# From MPC104795
251P/LINEAR,e,23.3995,219.3923,31.2753,3.510313,0.1498599,0.50530413,188.4622,12/25.0/2020,2000,g 16.5,2.0
# From MPC102956
252P/LINEAR,e,10.4095,190.9497,343.3050,3.050050,0.1850306,0.67199207,323.3747,12/25.0/2020,2000,g 17.5,4.0
# From MPC112394
253P/PANSTARRS,e,4.9429,146.8792,230.6337,3.467414,0.1526496,0.41363005,146.8486,12/25.0/2020,2000,g 14.5,4.0
# From MPEC 2020-W26
254P/McNaught,e,32.5728,129.1749,219.4911,4.612435,0.0994967,0.31988057,8.5850,12/25.0/2020,2000,g 11.0,4.0
# From NK 2214
255P/Levy,e,13.6415,276.2662,185.5831,2.940310,0.1954854,0.71535368,238.8709,12/25.0/2020,2000,g  9.0,4.0
# From MPC 84027
256P/LINEAR,e,27.6317,81.3517,124.2847,4.636875,0.0987111,0.41821894,280.3008,12/25.0/2020,2000,g 14.0,2.0
# From MPEC 2020-W26
257P/Catalina,e,20.2231,207.7346,117.6471,3.762314,0.1350584,0.43055111,14.2182,12/25.0/2020,2000,g 11.5,4.0
# From MPC 79655
258P/PANSTARRS,e,6.7460,126.2484,26.0762,4.400536,0.1067691,0.20885606,20.1407,12/25.0/2020,2000,g 13.0,4.0
# From MPC106349
259P/Garradd,e,15.8891,51.4549,257.6036,2.730562,0.2184370,0.33852624,270.3624,12/25.0/2020,2000,g 15.5,4.0
# From MPEC 2020-SI8
260P/McNaught,e,15.0546,349.3421,18.4056,3.622615,0.1429456,0.60900834,67.4667,12/25.0/2020,2000,g 13.5,4.0
# From MPEC 2019-TG9
261P/Larson,e,6.0759,291.1617,67.1402,3.489949,0.1511734,0.42311981,83.9286,12/25.0/2020,2000,g 14.0,4.0
# From MPC 82322
262P/McNaught-Russell,e,29.1917,217.8954,171.0038,6.875573,0.0546689,0.81534737,161.0838,12/25.0/2020,2000,g 13.5,4.0
# From MPC 89018
263P/Gibbs,e,11.5455,105.7946,34.4528,3.052674,0.1847921,0.59092406,218.1298,12/25.0/2020,2000,g  9.0,4.0
# From MPC114608
264P/Larsen,e,25.1311,220.7695,346.7237,3.897491,0.1280933,0.37471065,65.0677,12/25.0/2020,2000,g 13.0,4.0
# From MPC 79870
265P/LINEAR,e,14.3648,342.9271,33.4224,4.251761,0.1124219,0.64744565,354.8241,12/25.0/2020,2000,g 14.5,4.0
# From MPEC 2019-TG9
266P/Christensen,e,3.4261,4.9982,97.8300,3.534986,0.1482936,0.33944692,37.0072,12/25.0/2020,2000,g 12.5,4.0
# From MPC114608
267P/LONEOS,e,6.1379,228.6445,114.1133,3.212044,0.1712111,0.61414867,151.7410,12/25.0/2020,2000,g 19.5,4.0
# From MPC 92277
268P/Bernardi,e,16.1504,127.5899,359.9988,4.547627,0.1016311,0.47264827,210.4161,12/25.0/2020,2000,g 14.0,4.0
# From MPC104795
269P/Jedicke,e,7.0710,241.7045,225.9239,7.079008,0.0523294,0.43040239,119.2038,12/25.0/2020,2000,g 10.0,4.0
# From MPC 88332
270P/Gehrels,e,2.9184,222.9690,209.8727,6.667609,0.0572465,0.46714037,157.8966,12/25.0/2020,2000,g  8.0,4.0
# From MPC 92277
271P/van Houten-Lemmon,e,6.8681,9.3025,36.4295,7.046047,0.0526970,0.39373980,143.5654,12/25.0/2020,2000,g 11.0,4.0
# From MPC 81862
272P/NEAT,e,18.0762,109.4659,27.9626,4.455476,0.1048004,0.45422107,300.3367,12/25.0/2020,2000,g 16.0,2.0
# From MPC 82723
273P/Pons-Gambart,e,136.7836,320.4008,20.3172,31.77075,0.0055038,0.97406994,0.0000,12/17.5884/2012,2000,g 11.5,4.0
# From MPC 88332
274P/Tombaugh-Tenagra,e,15.8176,81.3380,38.5004,4.371765,0.1078249,0.43887421,309.3634,12/25.0/2020,2000,g 13.0,4.0
# From MPC 81862
275P/Hermann,e,21.2775,348.7574,174.0856,5.772092,0.0710729,0.71243163,207.9314,12/25.0/2020,2000,g 17.0,4.0
# From MPEC 2020-K19
276P/Vorobjov,e,14.8142,211.4181,199.8243,5.314888,0.0804383,0.26720605,243.1491,12/25.0/2020,2000,g 11.5,4.0
# From MPEC 2020-W26
277P/LINEAR,e,16.7789,276.3446,152.3167,3.852195,0.1303592,0.50561034,359.3260,12/25.0/2020,2000,g 14.0,4.0
# From MPEC 2020-W26
278P/McNaught,e,6.6849,15.4377,238.0946,3.695285,0.1387497,0.43522499,14.4208,12/25.0/2020,2000,g 14.0,4.0
# From MPC100285
279P/La Sagra,e,5.0522,346.2300,5.7698,3.574924,0.1458156,0.39828338,236.6877,12/25.0/2020,2000,g 14.0,4.0
# From MPC 89013
280P/Larsen,e,11.7752,131.3933,104.8016,4.529178,0.1022528,0.41782351,262.6097,12/25.0/2020,2000,g 12.5,4.0
# From MPC 83145
281P/MOSS,e,4.7197,87.1746,26.8086,4.870518,0.0916941,0.17169776,289.4020,12/25.0/2020,2000,g 11.0,4.0
# From MPC xxxxx
282P/,e,5.8107,9.2950,217.5781,4.243544,0.1127485,0.18909191,325.8051,12/25.0/2020,2000,g 13.5,2.0
# From MPEC 2013-M31
283P/Spacewatch,e,14.4542,161.1312,22.2603,4.139687,0.1170181,0.48497974,329.9218,12/25.0/2020,2000,g  9.0,4.0
# From MPEC 2020-K19
284P/McNaught,e,11.8593,144.2683,202.5764,3.677876,0.1397360,0.37605806,323.3755,12/25.0/2020,2000,g 13.0,4.0
# From MPC 85339
285P/LINEAR,e,25.0330,185.4941,178.4098,4.508584,0.1029541,0.61824050,282.9333,12/25.0/2020,2000,g 15.0,4.0
# From MPC 90771
286P/Christensen,e,17.0449,283.9620,24.7986,4.110080,0.1182847,0.42532092,300.4393,12/25.0/2020,2000,g 14.0,4.0
# From MPC 96868
287P/Christensen,e,16.3196,139.0436,188.8804,4.166639,0.1158845,0.27077923,253.2567,12/25.0/2020,2000,g 13.5,4.0
# From MPC xxxxx
288P/,e,3.2400,83.1889,280.6521,3.048349,0.1851855,0.20137460,279.7359,12/25.0/2020,2000,g 16.0,2.0
# From MPC118844
289P/Blanpain,e,5.8942,68.8869,9.8770,3.047441,0.1852683,0.68539796,68.5533,12/25.0/2020,2000,g  2.5,4.0
# From MPC 95214
290P/Jager,e,20.2550,302.6815,181.9766,6.192084,0.0639660,0.63380819,160.0816,12/25.0/2020,2000,g 10.5,4.0
# From MPC 89314
291P/NEAT,e,6.3160,238.1342,173.8888,4.517382,0.1026535,0.43587818,271.4811,12/25.0/2020,2000,g 13.0,4.0
# From MPC115887
292P/Li,e,24.2564,90.9909,319.4567,6.108682,0.0652804,0.58796722,164.5693,12/25.0/2020,2000,g 12.5,4.0
# From MPEC 2020-W26
